OBJECT_NAME,OBJECT_ID,EPOCH,MEAN_MOTION,ECCENTRICITY,INCLINATION,RA_OF_ASC_NODE,ARG_OF_PERICENTER,MEAN_ANOMALY,EPHEMERIS_TYPE,CLASSIFICATION_TYPE,NORAD_CAT_ID,ELEMENT_SET_NO,REV_AT_EPOCH,BSTAR,MEAN_MOTION_DOT,MEAN_MOTION_DDOT
COSMOS 2534 (758),2019-030A,2026-06-26T14:50:40.657632,2.13102489,.00135695,64.3693,192.2990,275.0166,259.5182,0,U,44299,999,5512,0,.104E-5,0
BEIDOU-3 IGSO-2 (C39),2019-035A,2026-06-26T20:34:38.686944,1.00263830,.00395927,55.2494,158.7781,216.4480,327.7946,0,U,44337,999,2576,0,-.73E-6,0
GPS BIII-2  (PRN 18),2019-056A,2026-06-25T20:41:32.130816,2.00570107,.0062408,55.6325,330.7975,197.6705,333.6981,0,U,44506,999,5024,0,-.105E-5,0
BEIDOU-3 M24 (C46),2019-061A,2026-06-26T08:53:46.797792,1.86229234,.0008516,54.3965,182.4177,358.5179,1.5103,0,U,44542,999,4596,0,.97E-6,0
BEIDOU-3 M23 (C45),2019-061B,2026-06-26T18:30:57.663072,1.86227620,.000583,54.3955,182.3726,338.4016,201.8929,0,U,44543,999,4597,0,.94E-6,0
EUTELSAT 5 WEST B (EGNOS/PRN 121),2019-067A,2026-06-26T22:47:44.752128,1.00271638,.000343,0.0623,6.0580,89.3010,156.6393,0,U,44624,999,2453,0,-.31E-6,0
BEIDOU-3 M22 (C44),2019-078A,2026-06-26T05:03:18.490752,1.86227239,.0006246,53.9269,299.5096,51.5881,308.4637,0,U,44793,999,4481,0,-.101E-5,0
BEIDOU-3 M21 (C43),2019-078B,2026-06-26T08:24:45.329760,1.86227884,.00040774,53.8996,299.4656,50.4029,309.6292,0,U,44794,999,4482,0,-.1E-5,0
COSMOS 2544 (759),2019-088A,2026-06-25T22:41:15.294624,2.13102928,.00129231,65.5707,73.4383,257.6247,102.2670,0,U,44850,999,5090,0,-.63E-6,0
BEIDOU-3 M19 (C41),2019-090A,2026-06-26T08:05:23.318880,1.86231653,.00174855,56.5668,62.4875,297.5943,250.8226,0,U,44864,999,4440,0,-.86E-6,0
BEIDOU-3 M20 (C42),2019-090B,2026-06-26T03:47:24.031392,1.86231543,.00152731,56.5685,62.5279,312.0808,205.8058,0,U,44865,999,4438,0,-.87E-6,0
BEIDOU-3 G2 (C60),2020-017A,2026-06-26T22:00:51.836832,1.00272043,.00025417,2.8839,47.5036,38.9467,238.8926,0,U,45344,999,2335,0,-.132E-5,0
COSMOS 2545 (760),2020-018A,2026-06-26T03:22:01.430976,2.13102524,.00087602,64.3492,312.1035,229.5859,130.3273,0,U,45358,999,4885,0,-.86E-6,0
BEIDOU-3 G3 (C61),2020-040A,2026-06-26T21:37:57.460800,1.00274583,.00026333,2.4713,67.4774,328.8916,313.6758,0,U,45807,999,2216,0,-.345E-5,0
GPS BIII-3  (PRN 23),2020-041A,2026-06-26T17:02:29.374080,2.00558725,.00645317,56.6762,28.5735,204.5005,157.1000,0,U,45854,999,4423,0,-.81E-6,0
GALAXY 30 (WAAS/PRN 135),2020-056C,2026-06-26T15:22:53.277888,1.00270787,.00022948,0.0274,17.4127,76.1713,286.8850,0,U,46114,999,2138,0,0,0
COSMOS 2547 (705K),2020-075A,2026-06-26T07:55:04.781280,2.13100201,.0009406,64.5999,192.1702,239.7382,120.2220,0,U,46805,999,4410,0,.106E-5,0
GPS BIII-4  (PRN 14),2020-078A,2026-06-26T05:54:20.346912,2.00565126,.0073823,53.9789,210.4109,207.4122,155.8219,0,U,46826,999,4169,0,.83E-6,0
GPS BIII-5  (PRN 11),2021-054A,2026-06-26T17:35:14.334720,2.00568715,.00256946,55.1697,332.0757,228.3266,312.6633,0,U,48859,999,3694,0,-.105E-5,0
QZS-1R (QZSS/PRN 196),2021-096A,2026-06-26T14:51:13.875840,1.00253032,.0755635,37.4804,79.4425,271.9684,279.4688,0,U,49336,999,1710,0,-.312E-5,0
GSAT0223 (GALILEO 27),2021-116A,2026-06-23T10:34:17.397696,1.70476308,.00016008,57.1590,341.5051,183.5383,174.0725,0,U,49809,999,2828,0,-.98E-6,0
GSAT0224 (GALILEO 28),2021-116B,2026-06-25T14:50:06.558144,1.70476480,.00013732,57.1582,341.4456,160.1269,206.5880,0,U,49810,999,2835,0,-.97E-6,0
COSMOS 2557 (706K),2022-075A,2026-06-26T11:51:33.384096,2.13102255,.00103038,64.2926,314.1567,273.4277,86.4434,0,U,52984,999,3091,0,-.86E-6,0
COSMOS 2559 (707K),2022-130A,2026-06-26T07:31:50.945376,2.13101803,.001274,64.2654,314.2468,178.9915,181.0006,0,U,54031,999,2888,0,-.86E-6,0
COSMOS 2564 (761),2022-161A,2026-06-26T03:46:07.714272,2.13102114,.00122568,64.7425,192.4139,225.0447,134.9097,0,U,54377,999,2782,0,.107E-5,0
GPS BIII-6  (PRN 28),2023-009A,2026-06-25T22:24:46.712736,2.00571086,.00062645,55.1240,148.1751,317.1527,45.3707,0,U,55268,999,2542,0,.44E-6,0
BEIDOU-3 G4 (C62),2023-066A,2026-06-26T23:29:06.853056,1.00271118,.00048174,0.4758,334.0149,175.4488,257.9658,0,U,56564,999,1149,0,-.269E-5,0
NVS-01 (IRNSS-1J),2023-076A,2026-06-26T21:43:26.935104,1.00274839,.00028143,2.1434,243.9016,12.6328,113.8931,0,U,56759,999,1121,0,-.321E-5,0
COSMOS 2569 (703K),2023-114A,2026-06-26T15:19:34.555296,2.13103859,.00103346,65.3074,72.3017,296.6235,63.3113,0,U,57517,999,2246,0,-.58E-6,0
BEIDOU-3 M28 (C50),2023-207A,2026-06-25T21:22:28.718688,1.86229879,.0003002,55.7603,62.0093,352.5208,7.5157,0,U,58654,999,1700,0,-.9E-6,0
BEIDOU-3 M26 (C48),2023-207B,2026-06-26T05:24:05.823360,1.86229867,.0002695,55.7629,61.9846,322.2397,37.7837,0,U,58655,999,1699,0,-.88E-6,0
